ONEWEB-0243             
1 48774U 21045H   25212.86356252 -.00000120  00000+0 -35360-3 0  9995
2 48774  87.9091 323.1003 0002302  91.6521 268.4873 13.15547643202246
ONEWEB-0222             
1 48775U 21045J   25212.84693776  .00000085  00000+0  19048-3 0  9992
2 48775  87.9080 323.0594 0001910  93.5103 266.6245 13.15549154203401
ONEWEB-0244             
1 48776U 21045K   25212.87306959 -.00000085  00000+0 -25896-3 0  9990
2 48776  87.9083 323.0344 0002124  98.8064 261.3307 13.15547867202858
ONEWEB-0247             
1 48777U 21045L   25212.86990326 -.00000125  00000+0 -36537-3 0  9996
2 48777  87.9080 323.1078 0002726  84.1825 275.9616 13.15547291202295
ONEWEB-0245             
1 48778U 21045M   25212.86514540 -.00000167  00000+0 -47877-3 0  9992
2 48778  87.9079 323.0721 0001836  92.4599 267.6741 13.15547703202261
ONEWEB-0229             
1 48779U 21045N   25212.86039197 -.00000089  00000+0 -27129-3 0  9994
2 48779  87.9084 323.0722 0002080  97.9073 262.2293 13.15547725202298
ONEWEB-0228             
1 48780U 21045P   25212.81775350  .00000114  00000+0  26792-3 0  9991
2 48780  87.9080 323.0547 0002012  96.0203 264.1156 13.15547466202203
ONEWEB-0232             
1 48781U 21045Q   25212.86832958 -.00000161  00000+0 -46256-3 0  9996
2 48781  87.9077 323.0389 0001958  98.1231 262.0121 13.15549308202538
ONEWEB-0231             
1 48782U 21045R   25212.84613259  .00000097  00000+0  22398-3 0  9993
2 48782  87.9071 323.0972 0002133  92.9803 267.1571 13.15549726202229
ONEWEB-0234             
1 48783U 21045S   25212.80794569 -.00000685  00000+0 -18539-2 0  9990
2 48783  87.9075 323.0712 0001044  97.5973 262.5276 13.15548700202351
ONEWEB-0238             
1 48784U 21045T   25212.80822807 -.00000055  00000+0 -17943-3 0  9998
2 48784  87.9070 323.0689 0001539 100.8076 259.3228 13.15547846202251
ONEWEB-0240             
1 48785U 21045U   25212.82950496 -.00000898  00000+0 -24193-2 0  9996
2 48785  87.9080 323.0462 0001818  88.3311 271.8028 13.15554349202280
ONEWEB-0246             
1 48786U 21045V   25212.82394713  .00000127  00000+0  30377-3 0  9996
2 48786  87.9084 323.0589 0002086  98.5431 261.5936 13.15550039202151
ONEWEB-0210             
1 48787U 21045W   25212.87465232 -.00000098  00000+0 -29389-3 0  9997
2 48787  87.9082 323.0483 0002592  92.5807 267.5620 13.15547477202200
ONEWEB-0214             
1 48788U 21045X   25212.80731494 -.00000083  00000+0 -25326-3 0  9998
2 48788  87.9079 323.0505 0002419  98.3243 261.8161 13.15545440202168
ONEWEB-0221             
1 48789U 21045Y   25212.81445488 -.00000289  00000+0 -80186-3 0  9998
2 48789  87.9075 323.0785 0002183  92.8924 267.2456 13.15547510202255
ONEWEB-0213             
1 48790U 21045Z   25212.87940623 -.00000061  00000+0 -19572-3 0  9996
2 48790  87.9080 323.0723 0002134  93.6614 266.4760 13.15547328202320
