[{"OBJECT_NAME":"ONEWEB-0243","OBJECT_ID":"2021-045H","EPOCH":"2025-07-31T20:43:31.801728","MEAN_MOTION":13.15547643,"ECCENTRICITY":0.0002302,"INCLINATION":87.9091,"RA_OF_ASC_NODE":323.1003,"ARG_OF_PERICENTER":91.6521,"MEAN_ANOMALY":268.4873,"EPHEMERIS_TYPE":0,"CLASSIFICATION_TYPE":"U","NORAD_CAT_ID":48774,"ELEMENT_SET_NO":999,"REV_AT_EPOCH":20224,"BSTAR":-0.0003536,"MEAN_MOTION_DOT":-1.2e-6,"MEAN_MOTION_DDOT":0},{"OBJECT_NAME":"ONEWEB-0222","OBJECT_ID":"2021-045J","EPOCH":"2025-07-31T20:19:35.422464","MEAN_MOTION":13.15549154,"ECCENTRICITY":0.000191,"INCLINATION":87.908,"RA_OF_ASC_NODE":323.0594,"ARG_OF_PERICENTER":93.5103,"MEAN_ANOMALY":266.6245,"EPHEMERIS_TYPE":0,"CLASSIFICATION_TYPE":"U","NORAD_CAT_ID":48775,"ELEMENT_SET_NO":999,"REV_AT_EPOCH":20340,"BSTAR":0.00019048,"MEAN_MOTION_DOT":8.5e-7,"MEAN_MOTION_DDOT":0},{"OBJECT_NAME":"ONEWEB-0244","OBJECT_ID":"2021-045K","EPOCH":"2025-07-31T20:57:13.212576","MEAN_MOTION":13.15547867,"ECCENTRICITY":0.0002124,"INCLINATION":87.9083,"RA_OF_ASC_NODE":323.0344,"ARG_OF_PERICENTER":98.8064,"MEAN_ANOMALY":261.3307,"EPHEMERIS_TYPE":0,"CLASSIFICATION_TYPE":"U","NORAD_CAT_ID":48776,"ELEMENT_SET_NO":999,"REV_AT_EPOCH":20285,"BSTAR":-0.00025896,"MEAN_MOTION_DOT":-8.5e-7,"MEAN_MOTION_DDOT":0},{"OBJECT_NAME":"ONEWEB-0247","OBJECT_ID":"2021-045L","EPOCH":"2025-07-31T20:52:39.641664","MEAN_MOTION":13.15547291,"ECCENTRICITY":0.0002726,"INCLINATION":87.908,"RA_OF_ASC_NODE":323.1078,"ARG_OF_PERICENTER":84.1825,"MEAN_ANOMALY":275.9616,"EPHEMERIS_TYPE":0,"CLASSIFICATION_TYPE":"U","NORAD_CAT_ID":48777,"ELEMENT_SET_NO":999,"REV_AT_EPOCH":20229,"BSTAR":-0.00036537,"MEAN_MOTION_DOT":-1.25e-6,"MEAN_MOTION_DDOT":0},{"OBJECT_NAME":"ONEWEB-0245","OBJECT_ID":"2021-045M","EPOCH":"2025-07-31T20:45:48.562560","MEAN_MOTION":13.15547703,"ECCENTRICITY":0.0001836,"INCLINATION":87.9079,"RA_OF_ASC_NODE":323.0721,"ARG_OF_PERICENTER":92.4599,"MEAN_ANOMALY":267.6741,"EPHEMERIS_TYPE":0,"CLASSIFICATION_TYPE":"U","NORAD_CAT_ID":48778,"ELEMENT_SET_NO":999,"REV_AT_EPOCH":20226,"BSTAR":-0.00047877,"MEAN_MOTION_DOT":-1.67e-6,"MEAN_MOTION_DDOT":0},{"OBJECT_NAME":"ONEWEB-0229","OBJECT_ID":"2021-045N","EPOCH":"2025-07-31T20:38:57.866208","MEAN_MOTION":13.15547725,"ECCENTRICITY":0.000208,"INCLINATION":87.9084,"RA_OF_ASC_NODE":323.0722,"ARG_OF_PERICENTER":97.9073,"MEAN_ANOMALY":262.2293,"EPHEMERIS_TYPE":0,"CLASSIFICATION_TYPE":"U","NORAD_CAT_ID":48779,"ELEMENT_SET_NO":999,"REV_AT_EPOCH":20229,"BSTAR":-0.00027129,"MEAN_MOTION_DOT":-8.9e-7,"MEAN_MOTION_DDOT":0},{"OBJECT_NAME":"ONEWEB-0228","OBJECT_ID":"2021-045P","EPOCH":"2025-07-31T19:37:33.902400","MEAN_MOTION":13.15547466,"ECCENTRICITY":0.0002012,"INCLINATION":87.908,"RA_OF_ASC_NODE":323.0547,"ARG_OF_PERICENTER":96.0203,"MEAN_ANOMALY":264.1156,"EPHEMERIS_TYPE":0,"CLASSIFICATION_TYPE":"U","NORAD_CAT_ID":48780,"ELEMENT_SET_NO":999,"REV_AT_EPOCH":20220,"BSTAR":0.00026792,"MEAN_MOTION_DOT":1.14e-6,"MEAN_MOTION_DDOT":0},{"OBJECT_NAME":"ONEWEB-0232","OBJECT_ID":"2021-045Q","EPOCH":"2025-07-31T20:50:23.675712","MEAN_MOTION":13.15549308,"ECCENTRICITY":0.0001958,"INCLINATION":87.9077,"RA_OF_ASC_NODE":323.0389,"ARG_OF_PERICENTER":98.1231,"MEAN_ANOMALY":262.0121,"EPHEMERIS_TYPE":0,"CLASSIFICATION_TYPE":"U","NORAD_CAT_ID":48781,"ELEMENT_SET_NO":999,"REV_AT_EPOCH":20253,"BSTAR":-0.00046256,"MEAN_MOTION_DOT":-1.61e-6,"MEAN_MOTION_DDOT":0},{"OBJECT_NAME":"ONEWEB-0231","OBJECT_ID":"2021-045R","EPOCH":"2025-07-31T20:18:25.855776","MEAN_MOTION":13.15549726,"ECCENTRICITY":0.0002133,"INCLINATION":87.9071,"RA_OF_ASC_NODE":323.0972,"ARG_OF_PERICENTER":92.9803,"MEAN_ANOMALY":267.1571,"EPHEMERIS_TYPE":0,"CLASSIFICATION_TYPE":"U","NORAD_CAT_ID":48782,"ELEMENT_SET_NO":999,"REV_AT_EPOCH":20222,"BSTAR":0.00022398,"MEAN_MOTION_DOT":9.7e-7,"MEAN_MOTION_DDOT":0},{"OBJECT_NAME":"ONEWEB-0234","OBJECT_ID":"2021-045S","EPOCH":"2025-07-31T19:23:26.507616","MEAN_MOTION":13.155487,"ECCENTRICITY":0.0001044,"INCLINATION":87.9075,"RA_OF_ASC_NODE":323.0712,"ARG_OF_PERICENTER":97.5973,"MEAN_ANOMALY":262.5276,"EPHEMERIS_TYPE":0,"CLASSIFICATION_TYPE":"U","NORAD_CAT_ID":48783,"ELEMENT_SET_NO":999,"REV_AT_EPOCH":20235,"BSTAR":-0.0018539,"MEAN_MOTION_DOT":-6.85e-6,"MEAN_MOTION_DDOT":0},{"OBJECT_NAME":"ONEWEB-0238","OBJECT_ID":"2021-045T","EPOCH":"2025-07-31T19:23:50.905248","MEAN_MOTION":13.15547846,"ECCENTRICITY":0.0001539,"INCLINATION":87.907,"RA_OF_ASC_NODE":323.0689,"ARG_OF_PERICENTER":100.8076,"MEAN_ANOMALY":259.3228,"EPHEMERIS_TYPE":0,"CLASSIFICATION_TYPE":"U","NORAD_CAT_ID":48784,"ELEMENT_SET_NO":999,"REV_AT_EPOCH":20225,"BSTAR":-0.00017943,"MEAN_MOTION_DOT":-5.5e-7,"MEAN_MOTION_DDOT":0},{"OBJECT_NAME":"ONEWEB-0240","OBJECT_ID":"2021-045U","EPOCH":"2025-07-31T19:54:29.228544","MEAN_MOTION":13.15554349,"ECCENTRICITY":0.0001818,"INCLINATION":87.908,"RA_OF_ASC_NODE":323.0462,"ARG_OF_PERICENTER":88.3311,"MEAN_ANOMALY":271.8028,"EPHEMERIS_TYPE":0,"CLASSIFICATION_TYPE":"U","NORAD_CAT_ID":48785,"ELEMENT_SET_NO":999,"REV_AT_EPOCH":20228,"BSTAR":-0.0024193,"MEAN_MOTION_DOT":-8.98e-6,"MEAN_MOTION_DDOT":0},{"OBJECT_NAME":"ONEWEB-0246","OBJECT_ID":"2021-045V","EPOCH":"2025-07-31T19:46:29.032032","MEAN_MOTION":13.15550039,"ECCENTRICITY":0.0002086,"INCLINATION":87.9084,"RA_OF_ASC_NODE":323.0589,"ARG_OF_PERICENTER":98.5431,"MEAN_ANOMALY":261.5936,"EPHEMERIS_TYPE":0,"CLASSIFICATION_TYPE":"U","NORAD_CAT_ID":48786,"ELEMENT_SET_NO":999,"REV_AT_EPOCH":20215,"BSTAR":0.00030377,"MEAN_MOTION_DOT":1.27e-6,"MEAN_MOTION_DDOT":0},{"OBJECT_NAME":"ONEWEB-0210","OBJECT_ID":"2021-045W","EPOCH":"2025-07-31T20:59:29.960448","MEAN_MOTION":13.15547477,"ECCENTRICITY":0.0002592,"INCLINATION":87.9082,"RA_OF_ASC_NODE":323.0483,"ARG_OF_PERICENTER":92.5807,"MEAN_ANOMALY":267.562,"EPHEMERIS_TYPE":0,"CLASSIFICATION_TYPE":"U","NORAD_CAT_ID":48787,"ELEMENT_SET_NO":999,"REV_AT_EPOCH":20220,"BSTAR":-0.00029389,"MEAN_MOTION_DOT":-9.8e-7,"MEAN_MOTION_DDOT":0},{"OBJECT_NAME":"ONEWEB-0214","OBJECT_ID":"2021-045X","EPOCH":"2025-07-31T19:22:32.010816","MEAN_MOTION":13.1554544,"ECCENTRICITY":0.0002419,"INCLINATION":87.9079,"RA_OF_ASC_NODE":323.0505,"ARG_OF_PERICENTER":98.3243,"MEAN_ANOMALY":261.8161,"EPHEMERIS_TYPE":0,"CLASSIFICATION_TYPE":"U","NORAD_CAT_ID":48788,"ELEMENT_SET_NO":999,"REV_AT_EPOCH":20216,"BSTAR":-0.00025326,"MEAN_MOTION_DOT":-8.3e-7,"MEAN_MOTION_DDOT":0},{"OBJECT_NAME":"ONEWEB-0221","OBJECT_ID":"2021-045Y","EPOCH":"2025-07-31T19:32:48.901632","MEAN_MOTION":13.1554751,"ECCENTRICITY":0.0002183,"INCLINATION":87.9075,"RA_OF_ASC_NODE":323.0785,"ARG_OF_PERICENTER":92.8924,"MEAN_ANOMALY":267.2456,"EPHEMERIS_TYPE":0,"CLASSIFICATION_TYPE":"U","NORAD_CAT_ID":48789,"ELEMENT_SET_NO":999,"REV_AT_EPOCH":20225,"BSTAR":-0.00080186,"MEAN_MOTION_DOT":-2.89e-6,"MEAN_MOTION_DDOT":0},{"OBJECT_NAME":"ONEWEB-0213","OBJECT_ID":"2021-045Z","EPOCH":"2025-07-31T21:06:20.698272","MEAN_MOTION":13.15547328,"ECCENTRICITY":0.0002134,"INCLINATION":87.908,"RA_OF_ASC_NODE":323.0723,"ARG_OF_PERICENTER":93.6614,"MEAN_ANOMALY":266.476,"EPHEMERIS_TYPE":0,"CLASSIFICATION_TYPE":"U","NORAD_CAT_ID":48790,"ELEMENT_SET_NO":999,"REV_AT_EPOCH":20232,"BSTAR":-0.00019572,"MEAN_MOTION_DOT":-6.1e-7,"MEAN_MOTION_DDOT":0}]
